STARLINK-36490          
1 67305U 26002A   26033.41423318  .00077489  00000+0  13098-2 0  9998
2 67305  42.9969 165.3805 0000706 233.7598 126.3197 15.50660444  5739
STARLINK-36488          
1 67306U 26002B   26033.41389047  .00116934  00000+0  19662-2 0  9991
2 67306  43.0010 165.3806 0001142 257.9128 102.1604 15.50624475  5674
STARLINK-36481          
1 67307U 26002C   26033.41320377  .00065853  00000+0  11168-2 0  9999
2 67307  42.9971 165.3718 0000864 228.7762 131.3024 15.50633263  5676
STARLINK-36449          
1 67308U 26002D   26033.41286380  .00091360  00000+0  15420-2 0  9992
2 67308  43.0025 165.3724 0001979 285.3790  74.6852 15.50633475  5734
STARLINK-36482          
1 67309U 26002E   26033.41114529  .00071007  00000+0  12028-2 0  9995
2 67309  42.9975 165.3562 0001079 250.7806 109.2938 15.50636118  5672
STARLINK-36491          
1 67310U 26002F   26033.41354729  .00065979  00000+0  11188-2 0  9992
2 67310  42.9979 165.3773 0000740 255.0106 105.0672 15.50634728  5671
STARLINK-36495          
1 67311U 26002G   26033.41251912  .00123573  00000+0  20695-2 0  9991
2 67311  42.9999 165.3695 0001216 246.1776 113.8956 15.50709180  5835
STARLINK-36485          
1 67312U 26002H   26033.41217594  .00082271  00000+0  13909-2 0  9999
2 67312  43.0005 165.3655 0002321 282.1950  77.8650 15.50629389  5678
STARLINK-36445          
1 67313U 26002J   26033.41183195  .00099931  00000+0  16837-2 0  9993
2 67313  43.0030 165.3633 0002282 275.1053  84.9547 15.50642697  5834
STARLINK-36476          
1 67314U 26002K   26033.41149001  .00067066  00000+0  11371-2 0  9994
2 67314  42.9979 165.3600 0001131 251.1641 108.9097 15.50630455  5665
STARLINK-36463          
1 67315U 26002L   26033.41080172  .00115578  00000+0  19453-2 0  9999
2 67315  42.9995 165.3533 0001359 240.9622 119.1103 15.50603461  5733
STARLINK-36461          
1 67316U 26002M   26033.41046062  .00091440  00000+0  15426-2 0  9997
2 67316  42.9995 165.3524 0001718 262.9099  97.1566 15.50647166  5834
STARLINK-36450          
1 67317U 26002N   26033.41013911  .00075636  00000+0  12829-2 0  9998
2 67317  42.9997 165.3502 0003153 235.5407 124.5156 15.50569865  5836
STARLINK-36498          
1 67318U 26002P   26033.40942960  .00109138  00000+0  18348-2 0  9990
2 67318  42.9995 165.3426 0001694 263.2018  96.8649 15.50663973  5736
STARLINK-36470          
1 67319U 26002Q   26032.76563054  .00065696  00000+0  11161-2 0  9998
2 67319  42.9977 169.1151 0000404 343.6351  16.4496 15.50583115  5631
STARLINK-36500          
1 67320U 26002R   26034.16668981 -.02006121  00000+0 -47974-1 0  9993
2 67320  43.0003 160.9535 0001017 261.0673 356.6630 15.44164249  5928
STARLINK-36462          
1 67321U 26002S   26034.16668981 -.02057576  00000+0 -42471-1 0  9991
2 67321  43.0001 160.9050 0001139 261.2156  14.9569 15.48474527  5878
STARLINK-36434          
1 67322U 26002T   26034.16668981 -.02038851  00000+0 -45121-1 0  9992
2 67322  42.9998 160.9220 0000944 282.8149 346.4457 15.46462028  5875
STARLINK-36497          
1 67323U 26002U   26034.00002314 -.00083417  00000+0 -14300-2 0  9990
2 67323  43.0002 161.8709 0001713 269.1489 159.2595 15.50602203  5909
STARLINK-36471          
1 67324U 26002V   26033.66503346  .00091223  00000+0  15421-2 0  9990
2 67324  42.9997 163.8185 0002110 282.5763  77.4861 15.50589038  5713
STARLINK-36473          
1 67325U 26002W   26034.00002314 -.00086278  00000+0 -14796-2 0  9999
2 67325  43.0003 161.8657 0001724 269.0556 161.2681 15.50605841  5999
STARLINK-36430          
1 67326U 26002X   26034.16668981  .00067078  00000+0  11420-2 0  9991
2 67326  43.0005 160.8755 0001533 268.8302  18.7346 15.50516234  6020
STARLINK-36501          
1 67327U 26002Y   26033.40703019  .00072101  00000+0  12211-2 0  9992
2 67327  43.0006 165.3233 0001472 279.7976  80.2718 15.50635024  5679
STARLINK-36489          
1 67328U 26002Z   26033.40634361  .00068314  00000+0  11588-2 0  9993
2 67328  42.9987 165.3178 0001462 277.0531  83.0163 15.50610331  5838
STARLINK-36496          
1 67329U 26002AA  26034.16668981  .00010148  00000+0  17866-3 0  9991
2 67329  43.0004 160.8612 0001501 261.5693  31.7205 15.50566916  5853
STARLINK-36483          
1 67330U 26002AB  26034.16668981 -.02024421  00000+0 -46171-1 0  9995
2 67330  43.0004 160.8762 0001003 266.0617  21.0568 15.45570579  6022
STARLINK-36494          
1 67331U 26002AC  26033.08392885  .00083715  00000+0  14162-2 0  9996
2 67331  42.9999 167.1987 0001419 290.2257  69.8450 15.50606685  5789
STARLINK-36492          
1 67332U 26002AD  26034.16668981 -.01991841  00000+0 -47957-1 0  9998
2 67332  43.0004 160.9015 0001208 262.6818  14.9924 15.43939105  6027
STARLINK-36427          
1 67333U 26002AE  26034.00002314  .00003848  00000+0  99372-4 0  9993
2 67333  43.0017 162.2368 0001591 278.7027 350.9497 15.40686738  5905
STARLINK-35343          
1 67334U 26003A   26034.16668981  .00057137  00000+0  97440-3 0  9993
2 67334  42.9997  63.4616 0001333 263.7210 241.4641 15.50528804  5063
STARLINK-36486          
1 67335U 26003B   26034.16668981  .00056389  00000+0  96180-3 0  9992
2 67335  42.9996  63.4569 0001346 258.4750 248.6273 15.50529114  5126
STARLINK-36480          
1 67336U 26003C   26034.16668981  .00047284  00000+0  80830-3 0  9992
2 67336  42.9996  63.4522 0001547 257.3995 251.6213 15.50531766  5122
STARLINK-36410          
1 67337U 26003D   26034.16668981  .00064958  00000+0  11058-2 0  9995
2 67337  42.9996  63.4475 0001840 245.9789 264.9505 15.50528863  5125
STARLINK-36413          
1 67338U 26003E   26034.16668981  .00051299  00000+0  87595-3 0  9990
2 67338  42.9996  63.4426 0001369 259.7531 253.0992 15.50533218  5125
STARLINK-36451          
1 67339U 26003F   26034.16668981  .00041943  00000+0  71812-3 0  9991
2 67339  42.9996  63.4367 0001426 264.8055 249.9690 15.50532104  5124
STARLINK-36339          
1 67340U 26003G   26034.16668981  .00041525  00000+0  71102-3 0  9991
2 67340  42.9996  63.4324 0001313 263.2248 253.4642 15.50534215  5123
STARLINK-36453          
1 67341U 26003H   26034.16668981  .00043208  00000+0  73948-3 0  9992
2 67341  42.9996  63.4268 0001342 260.2375 258.3692 15.50532585  5128
STARLINK-36432          
1 67342U 26003J   26034.16668981  .00045612  00000+0  78018-3 0  9997
2 67342  42.9997  63.4227 0001283 255.5709 264.9567 15.50528570  5119
STARLINK-36458          
1 67343U 26003K   26034.16668981  .00054225  00000+0  92534-3 0  9997
2 67343  42.9996  63.4182 0001399 255.1951 267.2448 15.50529996  5120
STARLINK-36422          
1 67344U 26003L   26034.16668981  .00043326  00000+0  74152-3 0  9994
2 67344  42.9996  63.4119 0001200 257.5010 266.8584 15.50531272  5119
STARLINK-35676          
1 67345U 26003M   26034.16668981  .00043447  00000+0  74361-3 0  9991
2 67345  42.9996  63.4077 0001623 268.4626 257.8160 15.50528579  5112
STARLINK-36472          
1 67346U 26003N   26034.16668981  .00053523  00000+0  91351-3 0  9996
2 67346  42.9997  63.4034 0001571 251.1512 277.0394 15.50529633  5117
STARLINK-36420          
1 67347U 26003P   26034.16668981  .00044105  00000+0  75470-3 0  9997
2 67347  42.9996  63.3931 0001524 268.8588 263.1707 15.50529642  5123
STARLINK-36467          
1 67348U 26003Q   26034.16668981  .00050356  00000+0  86019-3 0  9994
2 67348  42.9996  63.3989 0001567 268.2595 261.8504 15.50528827  5120
STARLINK-36457          
1 67349U 26003R   26034.16668981  .00043025  00000+0  73638-3 0  9993
2 67349  42.9996  63.3883 0001430 264.5824 269.3607 15.50533379  5122
STARLINK-36475          
1 67350U 26003S   26034.16668981  .00043127  00000+0  73814-3 0  9994
2 67350  42.9995  63.3830 0001480 267.1381 268.7224 15.50531498  5114
STARLINK-36478          
1 67351U 26003T   26034.16668981  .00043138  00000+0  73833-3 0  9998
2 67351  42.9996  63.3785 0001059 259.5589 278.2198 15.50531769  5119
STARLINK-36479          
1 67352U 26003U   26034.16668981  .00043984  00000+0  75260-3 0  9994
2 67352  42.9996  63.3735 0001255 260.1905 279.5047 15.50532084  5122
STARLINK-36474          
1 67353U 26003V   26034.16668981  .00041985  00000+0  71893-3 0  9992
2 67353  42.9995  63.3688 0001386 266.5353 275.0828 15.50528980  5129
STARLINK-36448          
1 67354U 26003W   26034.16668981  .00043775  00000+0  74906-3 0  9990
2 67354  42.9995  63.3540 0001545 265.8533 281.5091 15.50532296  5125
STARLINK-36477          
1 67355U 26003X   26034.16668981  .00069899  00000+0  11890-2 0  9998
2 67355  42.9994  63.3645 0001442 260.0484 283.4792 15.50524537  5116
STARLINK-36429          
1 67356U 26003Y   26034.16668981  .00048236  00000+0  82446-3 0  9997
2 67356  42.9996  63.3594 0001387 266.2847 279.1657 15.50527915  5116
STARLINK-36456          
1 67357U 26003Z   26034.16668981  .00042275  00000+0  72381-3 0  9992
2 67357  42.9996  63.3486 0001363 265.6388 283.6467 15.50529533  5122
STARLINK-36466          
1 67358U 26003AA  26034.16668981  .00045638  00000+0  78062-3 0  9991
2 67358  42.9995  63.3439 0001386 266.7187 284.4831 15.50528258  5121
STARLINK-36499          
1 67359U 26003AB  26034.16668981  .00055710  00000+0  95032-3 0  9990
2 67359  42.9995  63.3396 0001418 263.3139 289.7966 15.50530626  5129
STARLINK-36469          
1 67360U 26003AC  26034.16668981  .00042678  00000+0  73058-3 0  9995
2 67360  42.9995  63.3340 0001422 264.8361 290.1978 15.50530406  5123
STARLINK-35306          
1 67361U 26003AD  26034.16668981 -.00150688  00000+0 -26055-2 0  9993
2 67361  42.9997  63.3287 0001801 271.8890 285.0070 15.50651746  5062
STARLINK-36428          
1 67362U 26003AE  26034.16668981  .00047222  00000+0  80748-3 0  9991
2 67362  42.9996  63.3234 0001974 275.4578 283.4229 15.50523139  5127
TWILIGHT A              
1 67363U 26004A   26034.08995191  .00005003  00000+0  56409-3 0  9998
2 67363  97.7993  34.8500 0007859 212.4627 147.6106 14.87011596  3341
